*******************************************************************************
 Revised: Nov 05, 2015              Kerberos / (Pluto)                      904

 Newly discovered satellite of Pluto. Fit to all available observations
 including New Horizons encounter tracking.
*******************************************************************************
 
 
*******************************************************************************
Ephemeris / WWW_USER Sat Aug  5 12:52:33 2017 Pasadena, USA      / Horizons    
*******************************************************************************
Target body name: Kerberos (904)                  {source: plu055l_merged}
Center body name: Solar System Barycenter (0)     {source: DE431mx}
Center-site name: BODY CENTER
*******************************************************************************
Start time      : A.D. 2017-Jul-10 00:00:00.0000 TDB
Stop  time      : A.D. 2020-Aug-13 00:00:00.0000 TDB
Step-size       : 1440 minutes
*******************************************************************************
Center geodetic : 0.00000000,0.00000000,0.0000000 {E-lon(deg),Lat(deg),Alt(km)}
Center cylindric: 0.00000000,0.00000000,0.0000000 {E-lon(deg),Dxy(km),Dz(km)}
Center radii    : (undefined)                                                  
Output units    : KM-S                                                         
Output type     : GEOMETRIC cartesian states
Output format   : 3 (position, velocity, LT, range, range-rate)
Reference frame : ICRF/J2000.0                                                 
Coordinate systm: Ecliptic and Mean Equinox of Reference Epoch                 
*******************************************************************************
            JDTDB,            Calendar Date (TDB),                      X,                      Y,                      Z,                     VX,                     VY,                     VZ,                     LT,                     RG,                     RR,
**************************************************************************************************************************************************************************************************************************************************************************
$$SOE
2458336.500000000, A.D. 2018-Aug-06 00:00:00.0000,  1.710732263332090E+09, -4.727910610134010E+09,  1.103151678634667E+07,  5.152604452897437E+00,  6.886058013864600E-01, -1.483927559555731E+00,  1.677129796784548E+04,  5.027908641630801E+09,  1.102384793850317E+00,
2458337.500000000, A.D. 2018-Aug-07 00:00:00.0000,  1.711177973074503E+09, -4.727850256880419E+09,  1.090373153292680E+07,  5.165255345825279E+00,  7.085867296067851E-01, -1.474725660042225E+00,  1.677161365233824E+04,  5.028003281460837E+09,  1.088404064687930E+00,
2458338.500000000, A.D. 2018-Aug-08 00:00:00.0000,  1.711624895267551E+09, -4.727788157289127E+09,  1.077656921436644E+07,  5.180526521741045E+00,  7.288641337463189E-01, -1.469524710080536E+00,  1.677192537986665E+04,  5.028096735022806E+09,  1.075032322470267E+00,
2458339.500000000, A.D. 2018-Aug-09 00:00:00.0000,  1.712073215678267E+09, -4.727724334020596E+09,  1.064967688741016E+07,  5.197455512870457E+00,  7.482814148456343E-01, -1.468520113480542E+00,  1.677223343135321E+04,  5.028189086535152E+09,  1.063030200913905E+00,
2458340.500000000, A.D. 2018-Aug-10 00:00:00.0000,  1.712523038721368E+09, -4.727658910637241E+09,  1.052267955643773E+07,  5.215208973105641E+00,  7.657618372404351E-01, -1.472010416281556E+00,  1.677253831191943E+04,  5.028280487429497E+09,  1.053126464257153E+00,
2458341.500000000, A.D. 2018-Aug-11 00:00:00.0000,  1.712974419819633E+09, -4.727592080967798E+09,  1.039517374011064E+07,  5.233543288425940E+00,  7.808222570678461E-01, -1.480343795865879E+00,  1.677284069138339E+04,  5.028371138512245E+09,  1.045692150229313E+00,
2458342.500000000, A.D. 2018-Aug-12 00:00:00.0000,  1.713427415931309E+09, -4.727524046575708E+09,  1.026674241809797E+07,  5.252515941661265E+00,  7.936955787628022E-01, -1.493225432732657E+00,  1.677314126560057E+04,  5.028461248395625E+09,  1.040528914004473E+00,
2458343.500000000, A.D. 2018-Aug-13 00:00:00.0000,  1.713882023342222E+09, -4.727455013503037E+09,  1.013706532002807E+07,  5.270446146401630E+00,  8.036544767295311E-01, -1.508967013173784E+00,  1.677344067627707E+04,  5.028551009458285E+09,  1.037751434394959E+00,
2458344.500000000, A.D. 2018-Aug-14 00:00:00.0000,  1.714338082921516E+09, -4.727385295503463E+09,  1.000591383280587E+07,  5.286125520989515E+00,  8.094900143053207E-01, -1.527437505899610E+00,  1.677373972678724E+04,  5.028640662545795E+09,  1.038084055610374E+00,
2458345.500000000, A.D. 2018-Aug-15 00:00:00.0000,  1.714795405054537E+09, -4.727315249988670E+09,  9.873043063077211E+06,  5.299674059971457E+00,  8.112847387528730E-01, -1.548689266948159E+00,  1.677403932240495E+04,  5.028730479052434E+09,  1.041489050711507E+00,
2458346.500000000, A.D. 2018-Aug-16 00:00:00.0000,  1.715253798063272E+09, -4.727245213939630E+09,  9.738245083635330E+06,  5.310830568269284E+00,  8.093132288579588E-01, -1.571840059454107E+00,  1.677434030196710E+04,  5.028820710455178E+09,  1.047620019682409E+00,
2458347.500000000, A.D. 2018-Aug-17 00:00:00.0000,  1.715713029901371E+09, -4.727175502378195E+09,  9.601415247402668E+06,  5.318977844688249E+00,  8.038064564850909E-01, -1.595477441319280E+00,  1.677464338990322E+04,  5.028911573932538E+09,  1.056050893842555E+00,
2458348.500000000, A.D. 2018-Aug-18 00:00:00.0000,  1.716172812453351E+09, -4.727106414455674E+09,  9.462569573995829E+06,  5.323487307818474E+00,  7.948777128564466E-01, -1.618344051460414E+00,  1.677494919746973E+04,  5.029003252734578E+09,  1.066461620176733E+00,
2458349.500000000, A.D. 2018-Aug-19 00:00:00.0000,  1.716632811628225E+09, -4.727038250170717E+09,  9.321802218555927E+06,  5.323957720786122E+00,  7.823826800448570E-01, -1.639968377781439E+00,  1.677525828626733E+04,  5.029095915224948E+09,  1.078850013397430E+00,
2458350.500000000, A.D. 2018-Aug-20 00:00:00.0000,  1.717092683684701E+09, -4.726971317771370E+09,  9.179211342669487E+06,  5.320699156294571E+00,  7.665501145428877E-01, -1.660525516019891E+00,  1.677557123226305E+04,  5.029189734074228E+09,  1.093104687696318E+00,
2458351.500000000, A.D. 2018-Aug-21 00:00:00.0000,  1.717552145035619E+09, -4.726905830378950E+09,  9.034941596899748E+06,  5.314463531944684E+00,  7.492260325274573E-01, -1.678385289003017E+00,  1.677588838144944E+04,  5.029284813008369E+09,  1.107748602764790E+00,
2458352.500000000, A.D. 2018-Aug-22 00:00:00.0000,  1.718010924749861E+09, -4.726841879513259E+09,  8.889310061409235E+06,  5.304851367617292E+00,  7.309278021601641E-01, -1.692013869358143E+00,  1.677620971357989E+04,  5.029381145957591E+09,  1.122160253496160E+00,
2458353.500000000, A.D. 2018-Aug-23 00:00:00.0000,  1.718468726562278E+09, -4.726779556645151E+09,  8.742678589848042E+06,  5.291898563896943E+00,  7.115976096487046E-01, -1.701566825490310E+00,  1.677653517918046E+04,  5.029478718089981E+09,  1.136404232100583E+00,
2458354.500000000, A.D. 2018-Aug-24 00:00:00.0000,  1.718925287993698E+09, -4.726718924686813E+09,  8.595395753835440E+06,  5.276289394701145E+00,  6.919634524797199E-01, -1.707068503633943E+00,  1.677686467718659E+04,  5.029577499107141E+09,  1.150028524852518E+00,
2458355.500000000, A.D. 2018-Aug-25 00:00:00.0000,  1.719380421473010E+09, -4.726659959384018E+09,  8.447820238475323E+06,  5.259011726610062E+00,  6.732264527711193E-01, -1.708294379819617E+00,  1.677719791831763E+04,  5.029677402284923E+09,  1.162241123979081E+00,
2458356.500000000, A.D. 2018-Aug-26 00:00:00.0000,  1.719834021646026E+09, -4.726602533706379E+09,  8.300334400336742E+06,  5.240893796643293E+00,  6.564623692891456E-01, -1.704938067299658E+00,  1.677753438470308E+04,  5.029778272369655E+09,  1.172313943466806E+00,
2458357.500000000, A.D. 2018-Aug-27 00:00:00.0000,  1.720286030699605E+09, -4.726546452135154E+09,  8.153348707733870E+06,  5.222154893894610E+00,  6.421161188668456E-01, -1.696671809398544E+00,  1.677787339797743E+04,  5.029879905992464E+09,  1.179903895250551E+00,
2458358.500000000, A.D. 2018-Aug-28 00:00:00.0000,  1.720736389111887E+09, -4.726491514817684E+09,  8.007281968809128E+06,  5.202786834934601E+00,  6.299389060996291E-01, -1.683899577181306E+00,  1.677821426414782E+04,  5.029982095099535E+09,  1.185240854876478E+00,
2458359.500000000, A.D. 2018-Aug-29 00:00:00.0000,  1.721185106928309E+09, -4.726437512802221E+09,  7.862448604857206E+06,  5.184564122683411E+00,  6.207572779543985E-01, -1.668309277709594E+00,  1.677855633942187E+04,  5.030084646686766E+09,  1.188152385664620E+00,
2458360.500000000, A.D. 2018-Aug-30 00:00:00.0000,  1.721632347190855E+09, -4.726384127507217E+09,  7.719078511494637E+06,  5.168575382789792E+00,  6.157047768934951E-01, -1.649950262969819E+00,  1.677889881062759E+04,  5.030187316971319E+09,  1.187946454277066E+00,
2458361.500000000, A.D. 2018-Aug-31 00:00:00.0000,  1.722078296483646E+09, -4.726331004176981E+09,  7.577417699088097E+06,  5.154681260179682E+00,  6.146413288413248E-01, -1.628828008468231E+00,  1.677924077841160E+04,  5.030289836333846E+09,  1.184707887261282E+00,
2458362.500000000, A.D. 2018-Sep-01 00:00:00.0000,  1.722523144024831E+09, -4.726277810782093E+09,  7.437670672403812E+06,  5.143156962791973E+00,  6.172843586001620E-01, -1.605860700704829E+00,  1.677958141770905E+04,  5.030391957426120E+09,  1.178795951074021E+00,
2458363.500000000, A.D. 2018-Sep-02 00:00:00.0000,  1.722967120033476E+09, -4.726224237222326E+09,  7.299937613464355E+06,  5.134618758448350E+00,  6.234111454772444E-01, -1.582446979088471E+00,  1.677992001878670E+04,  5.030493467475469E+09,  1.170630019312173E+00,
